{
"type": "FeatureCollection",
"name": "MALANGJIWAN",
"crs": { "type": "name", "properties": { "name": "urn:ogc:def:crs:OGC:1.3:CRS84" } },
"features": [
{ "type": "Feature", "properties": { "OBJECTID": 6219.0, "NAMOBJ": "Malangjiwan", "FCODE": "BA03070040", "REMARK": null, "METADATA": "TASWIL1000020221227_DATA_BATAS_DESAKELURAHAN", "SRS_ID": "SRGI 2013", "KDBBPS": "3310", "KDCBPS": "3310080", "KDCPUM": "33.10.07", "KDEBPS": "3310080005", "KDEPUM": "33.10.07.2005", "KDPBPS": "33", "KDPKAB": "33.10", "KDPPUM": "33", "LUASWH": 0.0, "TIPADM": 1, "WADMKC": "Kebonarum", "WADMKD": "Malangjiwan", "WADMKK": "Klaten", "WADMPR": "Jawa Tengah", "WIADKC": null, "WIADKK": null, "WIADPR": null, "WIADKD": null, "UUPP": "Ajudikasi 2015", "luas": 1.101641228863858, "SHAPE_Leng": 0.069010069334175, "SHAPE_Area": 9.0288553176000002e-05 }, "geometry": { "type": "Polygon", "coordinates": [ [ [ 110.560019817000068, -7.683688092999935, 0.0 ], [ 110.560031078000065, -7.683724318999966, 0.0 ], [ 110.560034115000065, -7.683734087999929, 0.0 ], [ 110.560051566000084, -7.683790223999949, 0.0 ], [ 110.560052315000064, -7.683790023999967, 0.0 ], [ 110.560066860000063, -7.683786123999937, 0.0 ], [ 110.560191168000074, -7.684133210999961, 0.0 ], [ 110.560311736000074, -7.684470305999971, 0.0 ], [ 110.560384450000072, -7.684680032999943, 0.0 ], [ 110.560451398000055, -7.684815662999941, 0.0 ], [ 110.560459147000074, -7.684831362999936, 0.0 ], [ 110.560498847000076, -7.684894094999938, 0.0 ], [ 110.560566453000035, -7.685000916999965, 0.0 ], [ 110.560630667000055, -7.68507948399997, 0.0 ], [ 110.560711359000038, -7.685141359999932, 0.0 ], [ 110.560712706000061, -7.685142391999938, 0.0 ], [ 110.560869428000046, -7.685262572999931, 0.0 ], [ 110.560964367000054, -7.685325851999957, 0.0 ], [ 110.561001715000089, -7.685400559999943, 0.0 ], [ 110.561010152000051, -7.685595861999952, 0.0 ], [ 110.561022892000054, -7.685630466999958, 0.0 ], [ 110.561023046000059, -7.685630884999966, 0.0 ], [ 110.561043645000041, -7.685686838999965, 0.0 ], [ 110.561127927000086, -7.685848710999954, 0.0 ], [ 110.561228553000035, -7.685981878999931, 0.0 ], [ 110.561334005000049, -7.686086333999981, 0.0 ], [ 110.56147079200008, -7.686192689999928, 0.0 ], [ 110.561525080000081, -7.686109389999957, 0.0 ], [ 110.56153028500006, -7.686101403999943, 0.0 ], [ 110.561555466000073, -7.686063728999949, 0.0 ], [ 110.561706444000038, -7.685837824999965, 0.0 ], [ 110.561769973000082, -7.68571740999993, 0.0 ], [ 110.561807402000056, -7.68564646699997, 0.0 ], [ 110.562009190000083, -7.685388197999938, 0.0 ], [ 110.562138902000072, -7.685230373999952, 0.0 ], [ 110.562215820000063, -7.685190439999933, 0.0 ], [ 110.562241765000067, -7.685176969999924, 0.0 ], [ 110.562249319000045, -7.68517304799997, 0.0 ], [ 110.562721519000036, -7.685040787999975, 0.0 ], [ 110.562831767000034, -7.685009906999936, 0.0 ], [ 110.562964452000074, -7.684972740999963, 0.0 ], [ 110.563170806000073, -7.684939445999935, 0.0 ], [ 110.563257179000061, -7.684934747999928, 0.0 ], [ 110.56330511200008, -7.684982662999967, 0.0 ], [ 110.563367376000087, -7.685092814999964, 0.0 ], [ 110.563365994000037, -7.685129028999948, 0.0 ], [ 110.563360905000096, -7.685262408999955, 0.0 ], [ 110.563357515000064, -7.685351278999971, 0.0 ], [ 110.563410183000087, -7.685461422999934, 0.0 ], [ 110.563485340000057, -7.685534770999943, 0.0 ], [ 110.56352218800005, -7.685335272999957, 0.0 ], [ 110.563570631000061, -7.684882992999976, 0.0 ], [ 110.563570969000068, -7.684858644999958, 0.0 ], [ 110.563578401000086, -7.684322975999973, 0.0 ], [ 110.563580278000074, -7.684156782999932, 0.0 ], [ 110.563580920000049, -7.684099874999956, 0.0 ], [ 110.563581257000067, -7.684070074999972, 0.0 ], [ 110.563582217000089, -7.68398508399997, 0.0 ], [ 110.563598197000033, -7.683841502999942, 0.0 ], [ 110.563629387000049, -7.683729492999926, 0.0 ], [ 110.563670279000064, -7.683624230999948, 0.0 ], [ 110.563673159000075, -7.68360285199998, 0.0 ], [ 110.563676658000077, -7.683576868999973, 0.0 ], [ 110.563677513000073, -7.683570518999939, 0.0 ], [ 110.563714517000051, -7.683596598999944, 0.0 ], [ 110.563725221000084, -7.683604139999942, 0.0 ], [ 110.563737607000064, -7.683614550999947, 0.0 ], [ 110.563758365000069, -7.68363199899995, 0.0 ], [ 110.563761836000083, -7.683634915999963, 0.0 ], [ 110.563762519000079, -7.683635490999963, 0.0 ], [ 110.563794733000066, -7.68365542099997, 0.0 ], [ 110.563828374000082, -7.683750437999955, 0.0 ], [ 110.563856252000051, -7.68383249199996, 0.0 ], [ 110.563860592000083, -7.68384474999994, 0.0 ], [ 110.563889893000066, -7.683927509999939, 0.0 ], [ 110.563903313000083, -7.683967011999923, 0.0 ], [ 110.563925029000075, -7.684030922999957, 0.0 ], [ 110.563958669000044, -7.684125939999938, 0.0 ], [ 110.563975048000088, -7.684174141999954, 0.0 ], [ 110.563997732000075, -7.684240908999924, 0.0 ], [ 110.564003500000069, -7.684257200999978, 0.0 ], [ 110.564006205000069, -7.684264839999969, 0.0 ], [ 110.564018946000047, -7.684300829999927, 0.0 ], [ 110.564031372000045, -7.684335925999959, 0.0 ], [ 110.564054868000085, -7.684405078999933, 0.0 ], [ 110.564063657000091, -7.684427488999979, 0.0 ], [ 110.564116563000084, -7.684557521999978, 0.0 ], [ 110.564154613000085, -7.684654537999964, 0.0 ], [ 110.56417041900005, -7.68469483899998, 0.0 ], [ 110.564175409000086, -7.684707563999952, 0.0 ], [ 110.564186418000077, -7.684734619999976, 0.0 ], [ 110.564201863000051, -7.684772579999957, 0.0 ], [ 110.564240501000086, -7.684871097999979, 0.0 ], [ 110.564266955000051, -7.684936114999966, 0.0 ], [ 110.564293409000086, -7.685001131999965, 0.0 ], [ 110.564303524000081, -7.685026924999931, 0.0 ], [ 110.564305496000088, -7.685031948999956, 0.0 ], [ 110.564344220000066, -7.685130688999943, 0.0 ], [ 110.564370674000088, -7.685195706999925, 0.0 ], [ 110.564405082000064, -7.685280271999953, 0.0 ], [ 110.564416894000033, -7.68530930299994, 0.0 ], [ 110.564423582000074, -7.685325739999939, 0.0 ], [ 110.564460878000034, -7.685420836999979, 0.0 ], [ 110.564461980000033, -7.68542364899998, 0.0 ], [ 110.564466894000077, -7.685436178999964, 0.0 ], [ 110.564477546000035, -7.685476874999951, 0.0 ], [ 110.564491679000071, -7.685530886999965, 0.0 ], [ 110.564518686000042, -7.685593038999977, 0.0 ], [ 110.564551498000071, -7.685668549999946, 0.0 ], [ 110.564823387000047, -7.686294271999937, 0.0 ], [ 110.564828059000035, -7.686305023999973, 0.0 ], [ 110.564956811000059, -7.686601330999961, 0.0 ], [ 110.564967651000089, -7.686627683999967, 0.0 ], [ 110.564970322000079, -7.686634178999944, 0.0 ], [ 110.565296188000048, -7.687426467999948, 0.0 ], [ 110.565439586000082, -7.687775113999964, 0.0 ], [ 110.565777166000089, -7.688595878999933, 0.0 ], [ 110.56610331800006, -7.689388853999964, 0.0 ], [ 110.566127980000033, -7.689448814999933, 0.0 ], [ 110.566145887000062, -7.689492353999985, 0.0 ], [ 110.566176827000049, -7.689567577999987, 0.0 ], [ 110.566103006000063, -7.689589954999974, 0.0 ], [ 110.565154539000062, -7.689882055999925, 0.0 ], [ 110.565137697000068, -7.689884445999951, 0.0 ], [ 110.565136629000051, -7.689897914999969, 0.0 ], [ 110.565135156000053, -7.689916510999977, 0.0 ], [ 110.565130305000082, -7.689970919999951, 0.0 ], [ 110.565124096000034, -7.69004925899998, 0.0 ], [ 110.565120300000061, -7.690096383999953, 0.0 ], [ 110.565119439000057, -7.690107245999963, 0.0 ], [ 110.565113517000043, -7.690180731999933, 0.0 ], [ 110.565108577000046, -7.690243043999948, 0.0 ], [ 110.565110318000052, -7.690255077999949, 0.0 ], [ 110.565097535000064, -7.69027713299994, 0.0 ], [ 110.565095708000058, -7.690280284999975, 0.0 ], [ 110.565095214000053, -7.690276996999961, 0.0 ], [ 110.565007391000066, -7.690271832999933, 0.0 ], [ 110.564970318000064, -7.690269650999938, 0.0 ], [ 110.564928529000042, -7.69026719299995, 0.0 ], [ 110.564837900000043, -7.690261864999965, 0.0 ], [ 110.564776425000048, -7.690258247999959, 0.0 ], [ 110.564580875000047, -7.69024674799993, 0.0 ], [ 110.56452395000008, -7.690243400999978, 0.0 ], [ 110.564402234000056, -7.690232637999941, 0.0 ], [ 110.564368069000068, -7.690229618999972, 0.0 ], [ 110.564165403000061, -7.690211699999957, 0.0 ], [ 110.564140761000033, -7.690209519999948, 0.0 ], [ 110.564118105000034, -7.690207517999958, 0.0 ], [ 110.563988392000056, -7.690196048999939, 0.0 ], [ 110.563825918000077, -7.690181681999936, 0.0 ], [ 110.563780836000035, -7.690177695999981, 0.0 ], [ 110.563679438000065, -7.690168729999916, 0.0 ], [ 110.563600700000052, -7.690161767999935, 0.0 ], [ 110.563561825000093, -7.690158330999963, 0.0 ], [ 110.563502663000065, -7.690153100999961, 0.0 ], [ 110.563401264000049, -7.69014413399998, 0.0 ], [ 110.563311460000079, -7.69013589899992, 0.0 ], [ 110.563215109000055, -7.690127062999971, 0.0 ], [ 110.56321140200005, -7.690127036999975, 0.0 ], [ 110.563169198000082, -7.690128908999944, 0.0 ], [ 110.563106202000085, -7.690131700999929, 0.0 ], [ 110.563090698000053, -7.690132387999935, 0.0 ], [ 110.563067329000035, -7.690133423999949, 0.0 ], [ 110.563075919000084, -7.690143280999956, 0.0 ], [ 110.563085583000088, -7.690154369999955, 0.0 ], [ 110.563121103000071, -7.690195129999949, 0.0 ], [ 110.563149459000044, -7.690227665999942, 0.0 ], [ 110.563157492000073, -7.690236884999933, 0.0 ], [ 110.563159693000046, -7.69023986299994, 0.0 ], [ 110.563194617000079, -7.690279525999928, 0.0 ], [ 110.563235654000039, -7.690326135999958, 0.0 ], [ 110.563286561000041, -7.690383956999942, 0.0 ], [ 110.563309172000061, -7.690409637999948, 0.0 ], [ 110.563330256000086, -7.690433585999933, 0.0 ], [ 110.563362304000066, -7.690469982999953, 0.0 ], [ 110.563390827000049, -7.690507209999956, 0.0 ], [ 110.56341698500006, -7.690541350999985, 0.0 ], [ 110.563445278000074, -7.690578274999942, 0.0 ], [ 110.563500308000073, -7.69065009699995, 0.0 ], [ 110.563516575000051, -7.690695107999939, 0.0 ], [ 110.563521936000086, -7.690709936999959, 0.0 ], [ 110.563532844000065, -7.690740118999945, 0.0 ], [ 110.563544240000056, -7.690818351999944, 0.0 ], [ 110.563554883000052, -7.690891428999983, 0.0 ], [ 110.563565115000074, -7.690961675999969, 0.0 ], [ 110.563567111000054, -7.690975372999953, 0.0 ], [ 110.563578587000052, -7.691054162999925, 0.0 ], [ 110.563586751000059, -7.691102142999966, 0.0 ], [ 110.563598080000077, -7.691168714999952, 0.0 ], [ 110.563609224000075, -7.691234199999943, 0.0 ], [ 110.563638141000069, -7.691404128999971, 0.0 ], [ 110.563648784000065, -7.691466671999931, 0.0 ], [ 110.563660544000072, -7.691535773999929, 0.0 ], [ 110.563667422000037, -7.691576192999939, 0.0 ], [ 110.56367141700008, -7.691599666999933, 0.0 ], [ 110.563675062000073, -7.691621087999982, 0.0 ], [ 110.563677991000077, -7.691638303999975, 0.0 ], [ 110.563680753000085, -7.691654530999933, 0.0 ], [ 110.563683517000072, -7.691670777999946, 0.0 ], [ 110.563689748000058, -7.691706142999982, 0.0 ], [ 110.563698653000074, -7.691756701999973, 0.0 ], [ 110.563703273000044, -7.691782923999942, 0.0 ], [ 110.563706225000033, -7.691799690999978, 0.0 ], [ 110.563725194000085, -7.691907377999932, 0.0 ], [ 110.56373123700007, -7.691941684999966, 0.0 ], [ 110.563735469000051, -7.691965712999941, 0.0 ], [ 110.563743774000045, -7.692012862999948, 0.0 ], [ 110.563750306000102, -7.692049938999958, 0.0 ], [ 110.563752314000055, -7.692060441999962, 0.0 ], [ 110.563757901000088, -7.692089651999943, 0.0 ], [ 110.563768981000067, -7.692147587999944, 0.0 ], [ 110.563775259000067, -7.692180416999975, 0.0 ], [ 110.563786105000077, -7.692237129999961, 0.0 ], [ 110.563789316000054, -7.692253918999945, 0.0 ], [ 110.563792996000075, -7.69227316099994, 0.0 ], [ 110.563795018000064, -7.69228373099997, 0.0 ], [ 110.563802953000049, -7.692325228999953, 0.0 ], [ 110.5638157960001, -7.692392376999973, 0.0 ], [ 110.563825272000088, -7.692441927999935, 0.0 ], [ 110.563831617000062, -7.692475100999947, 0.0 ], [ 110.56383536900006, -7.692494717999983, 0.0 ], [ 110.563840032000087, -7.692519112999938, 0.0 ], [ 110.563844329000062, -7.692545857999966, 0.0 ], [ 110.563852755000084, -7.692598308999955, 0.0 ], [ 110.563856538000053, -7.692621852999934, 0.0 ], [ 110.563857370000051, -7.69262703699996, 0.0 ], [ 110.563864770000066, -7.69267310299995, 0.0 ], [ 110.56386671100006, -7.692685183999965, 0.0 ], [ 110.56383629000004, -7.692687038999954, 0.0 ], [ 110.563487859000077, -7.692741565999935, 0.0 ], [ 110.563290556000098, -7.692772442999972, 0.0 ], [ 110.562456680000082, -7.692902937999972, 0.0 ], [ 110.561877938000066, -7.692993505999937, 0.0 ], [ 110.561727168000075, -7.693017099999967, 0.0 ], [ 110.561712012000044, -7.693019470999963, 0.0 ], [ 110.561678645000086, -7.69302469299992, 0.0 ], [ 110.561404114000084, -7.693067653999951, 0.0 ], [ 110.561354755000082, -7.693075376999958, 0.0 ], [ 110.561303539000065, -7.693073816999961, 0.0 ], [ 110.561316121000061, -7.692865735999932, 0.0 ], [ 110.561318271000061, -7.692830178999935, 0.0 ], [ 110.561322371000074, -7.692762348999959, 0.0 ], [ 110.561329306000061, -7.692647667999947, 0.0 ], [ 110.561333083000079, -7.69258519099997, 0.0 ], [ 110.561334103000036, -7.692568334999977, 0.0 ], [ 110.561338862000085, -7.692489608999951, 0.0 ], [ 110.561348568000085, -7.692409943999967, 0.0 ], [ 110.56135901500005, -7.692324175999937, 0.0 ], [ 110.561368481000045, -7.692246465999966, 0.0 ], [ 110.561378551000075, -7.692163810999952, 0.0 ], [ 110.561388699000076, -7.692080504999972, 0.0 ], [ 110.561398445000066, -7.692000505999943, 0.0 ], [ 110.56140337000005, -7.691960071999976, 0.0 ], [ 110.561407508000059, -7.69192610799995, 0.0 ], [ 110.561417681000094, -7.691842598999934, 0.0 ], [ 110.561427749000075, -7.691759943999955, 0.0 ], [ 110.561507016000064, -7.691275516999956, 0.0 ], [ 110.561519702000055, -7.691216079999943, 0.0 ], [ 110.56154729900004, -7.691086804999947, 0.0 ], [ 110.56157247200008, -7.690968880999948, 0.0 ], [ 110.561594779000075, -7.690864376999968, 0.0 ], [ 110.561615353000036, -7.690767994999934, 0.0 ], [ 110.561641838000071, -7.690643929999957, 0.0 ], [ 110.561671933000071, -7.690502935999975, 0.0 ], [ 110.561667627000077, -7.690490675999964, 0.0 ], [ 110.561613102000081, -7.690497393999974, 0.0 ], [ 110.561567955000044, -7.690502956999977, 0.0 ], [ 110.561567891000038, -7.690501380999939, 0.0 ], [ 110.561495756000056, -7.690504538999953, 0.0 ], [ 110.561495176000051, -7.690504564999971, 0.0 ], [ 110.56149249300006, -7.690615528999952, 0.0 ], [ 110.56148378000006, -7.690691147999921, 0.0 ], [ 110.56144861100006, -7.690829205999936, 0.0 ], [ 110.56137226900006, -7.691111292999956, 0.0 ], [ 110.561321594000049, -7.691398433999957, 0.0 ], [ 110.561294120000071, -7.69156484499996, 0.0 ], [ 110.561278138000034, -7.691661649999962, 0.0 ], [ 110.561222265000083, -7.691869806999934, 0.0 ], [ 110.561091515000058, -7.692101341999939, 0.0 ], [ 110.560907100000065, -7.692258153999952, 0.0 ], [ 110.560698621000085, -7.692487214999967, 0.0 ], [ 110.560656824000034, -7.692535757999972, 0.0 ], [ 110.560646658000053, -7.692547563999932, 0.0 ], [ 110.560625118000075, -7.692572580999977, 0.0 ], [ 110.560487920000071, -7.692731923999936, 0.0 ], [ 110.560309496000073, -7.692939144999972, 0.0 ], [ 110.560304312000085, -7.69294497799995, 0.0 ], [ 110.560270384000034, -7.692983131999934, 0.0 ], [ 110.559955493000075, -7.693337272999934, 0.0 ], [ 110.559894275000033, -7.69340611999996, 0.0 ], [ 110.559865141000046, -7.693438883999931, 0.0 ], [ 110.559776224000075, -7.693584781999965, 0.0 ], [ 110.559774287000039, -7.69359155799998, 0.0 ], [ 110.559716028000082, -7.693795329999938, 0.0 ], [ 110.55971848500009, -7.693808107999933, 0.0 ], [ 110.559754210000051, -7.693994010999973, 0.0 ], [ 110.559761576000085, -7.694005739999972, 0.0 ], [ 110.559784798000067, -7.694042716999946, 0.0 ], [ 110.559850973000039, -7.694148089999944, 0.0 ], [ 110.559883551000041, -7.694199963999957, 0.0 ], [ 110.559960566000086, -7.694289404999958, 0.0 ], [ 110.560046497000087, -7.694389200999987, 0.0 ], [ 110.560161512000036, -7.694528127999941, 0.0 ], [ 110.560185075000049, -7.694622560999959, 0.0 ], [ 110.560185096000055, -7.694622643999943, 0.0 ], [ 110.560197352000046, -7.694671759999939, 0.0 ], [ 110.560182851000036, -7.694774655999931, 0.0 ], [ 110.560161875000063, -7.694833749999932, 0.0 ], [ 110.560125104000065, -7.694937339999966, 0.0 ], [ 110.560093933000076, -7.694991375999963, 0.0 ], [ 110.560086003000038, -7.695005121999948, 0.0 ], [ 110.560050598000089, -7.695066499999945, 0.0 ], [ 110.560047131000033, -7.695079128999969, 0.0 ], [ 110.56002, -7.695177965999954, 0.0 ], [ 110.56001447500006, -7.695198093999974, 0.0 ], [ 110.560014427000056, -7.695244375999952, 0.0 ], [ 110.560014366000075, -7.695303396999977, 0.0 ], [ 110.560081344000082, -7.695494929999935, 0.0 ], [ 110.560137872000041, -7.69559384599995, 0.0 ], [ 110.56018991500008, -7.695684918999977, 0.0 ], [ 110.560215453000069, -7.695729606999974, 0.0 ], [ 110.56038678200008, -7.695933809999923, 0.0 ], [ 110.560443303000056, -7.696004229999972, 0.0 ], [ 110.560482466000053, -7.696053025999963, 0.0 ], [ 110.560533660000033, -7.696108422999949, 0.0 ], [ 110.560579432000054, -7.696168354999931, 0.0 ], [ 110.560619387000102, -7.696232295999956, 0.0 ], [ 110.560653169000034, -7.696299684999934, 0.0 ], [ 110.560680482000066, -7.696369930999932, 0.0 ], [ 110.560701088000087, -7.696442417999939, 0.0 ], [ 110.560714807000068, -7.696516510999968, 0.0 ], [ 110.560721517000047, -7.69659155799997, 0.0 ], [ 110.560728793000081, -7.696654796999951, 0.0 ], [ 110.560731701000066, -7.696680072999929, 0.0 ], [ 110.560747691000074, -7.69676772899992, 0.0 ], [ 110.560769418000064, -7.696854149999973, 0.0 ], [ 110.560796788000061, -7.696938957999979, 0.0 ], [ 110.560829681000087, -7.697021790999941, 0.0 ], [ 110.560882739000078, -7.697115260999969, 0.0 ], [ 110.560939879000045, -7.697206303999971, 0.0 ], [ 110.561000990000082, -7.697294741999937, 0.0 ], [ 110.561065953000082, -7.697380404999928, 0.0 ], [ 110.561084651000044, -7.697399302999939, 0.0 ], [ 110.56112618300007, -7.697441276999942, 0.0 ], [ 110.561181645000033, -7.697506503999928, 0.0 ], [ 110.561232019000059, -7.697575713999981, 0.0 ], [ 110.56127702200007, -7.69764851599996, 0.0 ], [ 110.561401997000075, -7.697902330999971, 0.0 ], [ 110.561413973000086, -7.697956719999969, 0.0 ], [ 110.561419317000059, -7.698012148999958, 0.0 ], [ 110.56141795800005, -7.698067817999975, 0.0 ], [ 110.561409909000076, -7.698122920999942, 0.0 ], [ 110.561395290000064, -7.698176662999965, 0.0 ], [ 110.561374312000055, -7.698228265999945, 0.0 ], [ 110.561357612000052, -7.698272805999971, 0.0 ], [ 110.561346552000103, -7.698319062999937, 0.0 ], [ 110.561341301000084, -7.698366325999936, 0.0 ], [ 110.561314347000064, -7.698619091999944, 0.0 ], [ 110.56132931000009, -7.698627511999982, 0.0 ], [ 110.561342629000094, -7.698638335999923, 0.0 ], [ 110.561353921000034, -7.698651250999943, 0.0 ], [ 110.561362863000056, -7.698665884999969, 0.0 ], [ 110.561369194000065, -7.698681817999959, 0.0 ], [ 110.561372733000042, -7.698698586999957, 0.0 ], [ 110.561371562000033, -7.698715148999954, 0.0 ], [ 110.561373544000048, -7.698724586999958, 0.0 ], [ 110.561376408000058, -7.698748187999974, 0.0 ], [ 110.561388287000057, -7.698846080999939, 0.0 ], [ 110.561392037000076, -7.698876981999939, 0.0 ], [ 110.561400088000084, -7.698943330999958, 0.0 ], [ 110.561347093000052, -7.698935891999946, 0.0 ], [ 110.561211686000036, -7.698916885999948, 0.0 ], [ 110.56119390300006, -7.698914389999969, 0.0 ], [ 110.561110309000085, -7.698902655999976, 0.0 ], [ 110.561056633000078, -7.699046967999955, 0.0 ], [ 110.561038775000043, -7.699068357999971, 0.0 ], [ 110.561015118000057, -7.699088425999943, 0.0 ], [ 110.560988373000043, -7.699104171999986, 0.0 ], [ 110.560983628000088, -7.69910595999994, 0.0 ], [ 110.56095932500007, -7.699115125999978, 0.0 ], [ 110.560928829000034, -7.699120973999915, 0.0 ], [ 110.560897780000062, -7.699121538999972, 0.0 ], [ 110.560867090000059, -7.699116806999948, 0.0 ], [ 110.560837661000051, -7.699106915999946, 0.0 ], [ 110.560810358000083, -7.699092157999932, 0.0 ], [ 110.560744057000079, -7.699048597999928, 0.0 ], [ 110.560725443000081, -7.699044814999971, 0.0 ], [ 110.560651731000064, -7.699029830999963, 0.0 ], [ 110.560634633000063, -7.69902490599997, 0.0 ], [ 110.56063339400005, -7.699024548999941, 0.0 ], [ 110.560616134000057, -7.699016417999926, 0.0 ], [ 110.560605053000089, -7.699008834999976, 0.0 ], [ 110.560600395000051, -7.699005646999985, 0.0 ], [ 110.560593052000058, -7.698998665999962, 0.0 ], [ 110.560586579000073, -7.698992510999967, 0.0 ], [ 110.560575038000081, -7.698977345999938, 0.0 ], [ 110.56056606900006, -7.69896053799994, 0.0 ], [ 110.560559901000033, -7.698942518999958, 0.0 ], [ 110.560558743000058, -7.698937976999959, 0.0 ], [ 110.56054535700008, -7.698885464999931, 0.0 ], [ 110.560529318000093, -7.698822543999948, 0.0 ], [ 110.560511630000065, -7.698753155999954, 0.0 ], [ 110.560509546000048, -7.698744980999951, 0.0 ], [ 110.56049041700004, -7.698669937999961, 0.0 ], [ 110.560483889000068, -7.698644335999972, 0.0 ], [ 110.560474652000039, -7.698549874999968, 0.0 ], [ 110.560463116000051, -7.698431910999942, 0.0 ], [ 110.560466708000035, -7.698222009999931, 0.0 ], [ 110.560467009000035, -7.698204403999966, 0.0 ], [ 110.560428267000077, -7.698213389999974, 0.0 ], [ 110.560416447000094, -7.698216130999976, 0.0 ], [ 110.560366630000033, -7.698227654999932, 0.0 ], [ 110.560322348000057, -7.698237921999975, 0.0 ], [ 110.560306454000056, -7.698241607999937, 0.0 ], [ 110.560222957000065, -7.698260970999966, 0.0 ], [ 110.560161897000057, -7.698275096999965, 0.0 ], [ 110.560155816000076, -7.69827650199994, 0.0 ], [ 110.560026729000072, -7.698306360999944, 0.0 ], [ 110.559990078000055, -7.698314858999929, 0.0 ], [ 110.559971252000082, -7.698313850999968, 0.0 ], [ 110.559955829000046, -7.69831302599993, 0.0 ], [ 110.559915292000085, -7.698314023999965, 0.0 ], [ 110.559872186000064, -7.698315081999967, 0.0 ], [ 110.559820969000043, -7.698312339999967, 0.0 ], [ 110.559762012000093, -7.698302337999967, 0.0 ], [ 110.559655568000039, -7.698284278999956, 0.0 ], [ 110.559638077000045, -7.698281310999956, 0.0 ], [ 110.559608082000068, -7.698276221999944, 0.0 ], [ 110.55960716800007, -7.698275938999926, 0.0 ], [ 110.559571872000049, -7.698265001999965, 0.0 ], [ 110.559545377000063, -7.698256790999944, 0.0 ], [ 110.559518628000035, -7.698248502999943, 0.0 ], [ 110.559482167000056, -7.698237203999957, 0.0 ], [ 110.559460096000066, -7.698216904999988, 0.0 ], [ 110.559444715000055, -7.698202760999955, 0.0 ], [ 110.559407264000072, -7.698168318999927, 0.0 ], [ 110.559398533000049, -7.698151098999974, 0.0 ], [ 110.559363474000065, -7.698081948999966, 0.0 ], [ 110.559309604000077, -7.697975691999942, 0.0 ], [ 110.559299521000071, -7.697955806999962, 0.0 ], [ 110.55929922100006, -7.697955402999973, 0.0 ], [ 110.559272784000086, -7.697919802999928, 0.0 ], [ 110.559243719000051, -7.697880665999944, 0.0 ], [ 110.559220595000056, -7.69784952899994, 0.0 ], [ 110.559199413000044, -7.697821004999975, 0.0 ], [ 110.559152777000065, -7.697758208999979, 0.0 ], [ 110.559111336000058, -7.697716175999965, 0.0 ], [ 110.559040523000078, -7.697644351999949, 0.0 ], [ 110.559029775000056, -7.697633446999924, 0.0 ], [ 110.559017887000039, -7.697621390999927, 0.0 ], [ 110.558995493000054, -7.697598673999942, 0.0 ], [ 110.558974641000077, -7.697573792999951, 0.0 ], [ 110.558958215000075, -7.697545806999922, 0.0 ], [ 110.558946669000079, -7.697515489999938, 0.0 ], [ 110.558940325000037, -7.697483682999964, 0.0 ], [ 110.558939356000053, -7.697451266999956, 0.0 ], [ 110.558932493000043, -7.697399242999946, 0.0 ], [ 110.558922065000047, -7.697333416999978, 0.0 ], [ 110.558916336000038, -7.697297260999964, 0.0 ], [ 110.558912060000068, -7.697288706999931, 0.0 ], [ 110.558915324000054, -7.697274835999965, 0.0 ], [ 110.558920630000046, -7.697261607999955, 0.0 ], [ 110.55892785900005, -7.697249321999944, 0.0 ], [ 110.558936848000087, -7.697238247999964, 0.0 ], [ 110.5589473940001, -7.697228642999962, 0.0 ], [ 110.558959262000087, -7.697220714999964, 0.0 ], [ 110.558972184000083, -7.697214646999961, 0.0 ], [ 110.558972192000056, -7.697168151999967, 0.0 ], [ 110.5589722160001, -7.697029942999959, 0.0 ], [ 110.559025147000071, -7.696886400999965, 0.0 ], [ 110.559080401000074, -7.69681465999997, 0.0 ], [ 110.559121211000047, -7.696790768999957, 0.0 ], [ 110.559214772000075, -7.696795650999936, 0.0 ], [ 110.559291496000071, -7.696843594999967, 0.0 ], [ 110.559329816000059, -7.696908254999928, 0.0 ], [ 110.559372943000085, -7.696963343999928, 0.0 ], [ 110.559412271000042, -7.696981497999954, 0.0 ], [ 110.55944110300004, -7.696994808999936, 0.0 ], [ 110.559497641000064, -7.69702090999993, 0.0 ], [ 110.55955521500006, -7.69706322799993, 0.0 ], [ 110.559600992000071, -7.697065413999951, 0.0 ], [ 110.559752588000038, -7.69709428899995, 0.0 ], [ 110.559913812000062, -7.697094454999952, 0.0 ], [ 110.559965629000033, -7.697098336999951, 0.0 ], [ 110.560101859000042, -7.697138683999978, 0.0 ], [ 110.560136277000083, -7.697152075999953, 0.0 ], [ 110.560139942000035, -7.697149923999974, 0.0 ], [ 110.560141114000089, -7.697151555999939, 0.0 ], [ 110.560216096000033, -7.697143494999971, 0.0 ], [ 110.560209614000101, -7.69713261999993, 0.0 ], [ 110.560183485000039, -7.697100095999926, 0.0 ], [ 110.56015308700006, -7.697071500999934, 0.0 ], [ 110.560119007000083, -7.697047386999941, 0.0 ], [ 110.56008190600005, -7.697028221999969, 0.0 ], [ 110.560047725000061, -7.697013469999945, 0.0 ], [ 110.559978409000053, -7.696988420999957, 0.0 ], [ 110.559831882000083, -7.696935466999953, 0.0 ], [ 110.559700039000063, -7.69682763499998, 0.0 ], [ 110.559666919000051, -7.696778369999946, 0.0 ], [ 110.55957727100008, -7.69664502199993, 0.0 ], [ 110.559489018000079, -7.696513801999971, 0.0 ], [ 110.55947860100008, -7.696498313999931, 0.0 ], [ 110.559469397000044, -7.696484630999969, 0.0 ], [ 110.559460492000085, -7.696471388999955, 0.0 ], [ 110.559406229000047, -7.696357227999959, 0.0 ], [ 110.559373711000049, -7.696288811999977, 0.0 ], [ 110.559331757000052, -7.696218485999963, 0.0 ], [ 110.55927192300004, -7.696118188999942, 0.0 ], [ 110.559191051000084, -7.696022373999941, 0.0 ], [ 110.55916329300004, -7.695959700999933, 0.0 ], [ 110.559086332000049, -7.695785929999945, 0.0 ], [ 110.559078359000068, -7.695764544999971, 0.0 ], [ 110.55904780300007, -7.695682598999957, 0.0 ], [ 110.559011566000038, -7.695585417999949, 0.0 ], [ 110.558980236000096, -7.695534510999955, 0.0 ], [ 110.558939713000086, -7.695468669999976, 0.0 ], [ 110.55879886200006, -7.69537279499997, 0.0 ], [ 110.558715050000046, -7.695220137999966, 0.0 ], [ 110.558706872000073, -7.695187363999942, 0.0 ], [ 110.558694144000071, -7.695136350999972, 0.0 ], [ 110.558684596000035, -7.695067799999944, 0.0 ], [ 110.55867330600006, -7.694986750999926, 0.0 ], [ 110.558577498000034, -7.694834080999956, 0.0 ], [ 110.558548329000075, -7.694807107999968, 0.0 ], [ 110.558457657000076, -7.694723267999954, 0.0 ], [ 110.558402578000084, -7.694619994999932, 0.0 ], [ 110.558361876000049, -7.694543673999926, 0.0 ], [ 110.55829602700004, -7.694420950999931, 0.0 ], [ 110.558193840000058, -7.694356059999969, 0.0 ], [ 110.55807425200004, -7.694280117999941, 0.0 ], [ 110.558025987000065, -7.694255055999975, 0.0 ], [ 110.55791839300008, -7.694199185999926, 0.0 ], [ 110.557815046000087, -7.694053693999932, 0.0 ], [ 110.557771659000082, -7.693992612999976, 0.0 ], [ 110.557754223000074, -7.693947704999965, 0.0 ], [ 110.557712602000038, -7.693840495999947, 0.0 ], [ 110.557657406000033, -7.69369832299998, 0.0 ], [ 110.55766039100007, -7.693618672999943, 0.0 ], [ 110.557664807000052, -7.693500884999935, 0.0 ], [ 110.557700988000079, -7.69331424699993, 0.0 ], [ 110.557756608000034, -7.693172884999973, 0.0 ], [ 110.557765935000077, -7.693149177999949, 0.0 ], [ 110.55784168200006, -7.692980529999949, 0.0 ], [ 110.557899399000064, -7.692847763999959, 0.0 ], [ 110.557971510000073, -7.692715010999962, 0.0 ], [ 110.557982440000046, -7.692585786999922, 0.0 ], [ 110.557977361000042, -7.69253889399994, 0.0 ], [ 110.557976844000052, -7.692534115999935, 0.0 ], [ 110.557961052000053, -7.692388319999968, 0.0 ], [ 110.557943211000079, -7.692241113999962, 0.0 ], [ 110.557919202000051, -7.692110339999946, 0.0 ], [ 110.557900075000092, -7.692006156999978, 0.0 ], [ 110.557889185000079, -7.69196660699993, 0.0 ], [ 110.557875368000069, -7.691937480999966, 0.0 ], [ 110.557871599000066, -7.691929532999956, 0.0 ], [ 110.557847848000051, -7.691896055999962, 0.0 ], [ 110.557818649000069, -7.691867180999957, 0.0 ], [ 110.557784882000092, -7.691843780999932, 0.0 ], [ 110.557713349000053, -7.69180290999997, 0.0 ], [ 110.55757828200008, -7.691759535999952, 0.0 ], [ 110.557555328000035, -7.69174999799997, 0.0 ], [ 110.557534277000073, -7.691736794999944, 0.0 ], [ 110.557515710000089, -7.691720294999932, 0.0 ], [ 110.557500142000038, -7.691700952999949, 0.0 ], [ 110.55748800300006, -7.691679304999973, 0.0 ], [ 110.557479629000056, -7.69165594999993, 0.0 ], [ 110.557475250000039, -7.691631530999934, 0.0 ], [ 110.55747499000006, -7.69160672799996, 0.0 ], [ 110.557478855000056, -7.691582223999936, 0.0 ], [ 110.557486737000048, -7.691558699999982, 0.0 ], [ 110.557498419000069, -7.691536801999978, 0.0 ], [ 110.557513578000055, -7.691517138999923, 0.0 ], [ 110.557580570000084, -7.691443781999965, 0.0 ], [ 110.557599888000084, -7.691416137999971, 0.0 ], [ 110.557695898000077, -7.691278762999949, 0.0 ], [ 110.557746425000062, -7.691138807999949, 0.0 ], [ 110.557746545000043, -7.691023930999957, 0.0 ], [ 110.557732194000039, -7.69098403799995, 0.0 ], [ 110.557714249000085, -7.690934149999967, 0.0 ], [ 110.557642347000069, -7.690865867999936, 0.0 ], [ 110.55759544700004, -7.690837092999968, 0.0 ], [ 110.557484105000071, -7.690768776999962, 0.0 ], [ 110.557454895000035, -7.690756684999937, 0.0 ], [ 110.557275471000082, -7.690682405999942, 0.0 ], [ 110.557212932000084, -7.69063724999995, 0.0 ], [ 110.557210744000088, -7.69063566999995, 0.0 ], [ 110.557200714000089, -7.690568911999954, 0.0 ], [ 110.55719048800006, -7.690500858999934, 0.0 ], [ 110.557182152000053, -7.690445373999985, 0.0 ], [ 110.557174753000083, -7.690409762999929, 0.0 ], [ 110.557146343000056, -7.69027302199992, 0.0 ], [ 110.557139692000078, -7.690209842999935, 0.0 ], [ 110.55712780500005, -7.690096923999931, 0.0 ], [ 110.557121399000053, -7.690036061999929, 0.0 ], [ 110.557118843000069, -7.689991061999931, 0.0 ], [ 110.557110796000089, -7.689849374999933, 0.0 ], [ 110.557097946000056, -7.689756813999964, 0.0 ], [ 110.557096561000037, -7.689746830999978, 0.0 ], [ 110.557089364000035, -7.689694988999972, 0.0 ], [ 110.557077856000035, -7.689657540999969, 0.0 ], [ 110.557046324000055, -7.68955493599997, 0.0 ], [ 110.557029409000066, -7.689516104999946, 0.0 ], [ 110.557006867000041, -7.689480230999945, 0.0 ], [ 110.556979204000072, -7.689448121999931, 0.0 ], [ 110.556947042000047, -7.689420496999963, 0.0 ], [ 110.556911101000082, -7.689397973999974, 0.0 ], [ 110.556872193000061, -7.689381061999933, 0.0 ], [ 110.556851951000056, -7.689375670999936, 0.0 ], [ 110.556831188000046, -7.689370139999936, 0.0 ], [ 110.556818064000083, -7.689367994999944, 0.0 ], [ 110.556805503000092, -7.689363637999975, 0.0 ], [ 110.556793875000039, -7.689357200999947, 0.0 ], [ 110.556760604000033, -7.689334841999938, 0.0 ], [ 110.556708316000083, -7.689299702999956, 0.0 ], [ 110.556622011000059, -7.689238584999937, 0.0 ], [ 110.556398965000085, -7.689170146999976, 0.0 ], [ 110.556291042000055, -7.689134135999957, 0.0 ], [ 110.556103982000081, -7.689065735999975, 0.0 ], [ 110.556041203000063, -7.689034518999965, 0.0 ], [ 110.556037620000041, -7.68903234699997, 0.0 ], [ 110.555971192000072, -7.689072367999919, 0.0 ], [ 110.55595930800007, -7.689061676999917, 0.0 ], [ 110.555947242000059, -7.689050820999966, 0.0 ], [ 110.555911504000051, -7.689018667999961, 0.0 ], [ 110.555854881000073, -7.688884769999964, 0.0 ], [ 110.555850115000055, -7.688870156999947, 0.0 ], [ 110.555847891000042, -7.688854952999971, 0.0 ], [ 110.55584826900008, -7.688839590999966, 0.0 ], [ 110.555859410000039, -7.688738322999947, 0.0 ], [ 110.55586082800005, -7.688725438999946, 0.0 ], [ 110.555876027000068, -7.688528009999973, 0.0 ], [ 110.555885123000053, -7.688432287999946, 0.0 ], [ 110.555783348000034, -7.688252686999926, 0.0 ], [ 110.555701505000059, -7.688188176999978, 0.0 ], [ 110.555627534000052, -7.688129870999948, 0.0 ], [ 110.555533970000056, -7.688030103999943, 0.0 ], [ 110.55549273400004, -7.687986135999957, 0.0 ], [ 110.555389363000089, -7.68786270499994, 0.0 ], [ 110.555384909000054, -7.687857384999973, 0.0 ], [ 110.555299106000064, -7.687722935999935, 0.0 ], [ 110.555184311000062, -7.687543059999948, 0.0 ], [ 110.555080960000055, -7.687375649999986, 0.0 ], [ 110.554968399000089, -7.687218203999981, 0.0 ], [ 110.554899846000069, -7.687132916999925, 0.0 ], [ 110.554795034000051, -7.686989211999959, 0.0 ], [ 110.554774721000058, -7.686915579999953, 0.0 ], [ 110.554732295000065, -7.686761786999963, 0.0 ], [ 110.554667574000078, -7.686633080999966, 0.0 ], [ 110.554643652000038, -7.686566043999951, 0.0 ], [ 110.554638994000072, -7.686463000999944, 0.0 ], [ 110.554636618000075, -7.686410475999938, 0.0 ], [ 110.554622419000054, -7.686300801999952, 0.0 ], [ 110.554611905000058, -7.68621957699998, 0.0 ], [ 110.554616595000084, -7.686151647999969, 0.0 ], [ 110.554621788000077, -7.686076486999982, 0.0 ], [ 110.55462712700006, -7.685999172999978, 0.0 ], [ 110.554539531000046, -7.685829434999954, 0.0 ], [ 110.55452309900005, -7.685797593999951, 0.0 ], [ 110.55446592800007, -7.685669458999931, 0.0 ], [ 110.55444254400004, -7.685617050999952, 0.0 ], [ 110.554422890000069, -7.685572997999936, 0.0 ], [ 110.555017250000049, -7.685292052999948, 0.0 ], [ 110.554941381000049, -7.685122745999934, 0.0 ], [ 110.554921172000036, -7.685077646999956, 0.0 ], [ 110.554855892000035, -7.684931969999986, 0.0 ], [ 110.554722340000069, -7.684627405999955, 0.0 ], [ 110.55470518900006, -7.684412074999959, 0.0 ], [ 110.554433746000086, -7.68452047199997, 0.0 ], [ 110.554391455000086, -7.684624542999925, 0.0 ], [ 110.554353812000045, -7.684717176999924, 0.0 ], [ 110.554333610000072, -7.684724835999934, 0.0 ], [ 110.55425609100007, -7.684754227999975, 0.0 ], [ 110.55419200700004, -7.684778523999968, 0.0 ], [ 110.554098492000037, -7.684729889999966, 0.0 ], [ 110.554029224000033, -7.684693865999975, 0.0 ], [ 110.553925089000074, -7.684596271999963, 0.0 ], [ 110.553899258000058, -7.684375276999953, 0.0 ], [ 110.553912499000035, -7.68417381999996, 0.0 ], [ 110.553963037000088, -7.684038758999975, 0.0 ], [ 110.554007979000062, -7.683918292999969, 0.0 ], [ 110.554018091000046, -7.683891186999976, 0.0 ], [ 110.554104030000076, -7.683625773999956, 0.0 ], [ 110.554030821000097, -7.683505500999948, 0.0 ], [ 110.554023323000081, -7.683493181999951, 0.0 ], [ 110.55390678200007, -7.683301721999955, 0.0 ], [ 110.553901998000072, -7.683291465999958, 0.0 ], [ 110.55389503300006, -7.683276535999929, 0.0 ], [ 110.553888896000046, -7.683257181999985, 0.0 ], [ 110.553885702000059, -7.683198706999974, 0.0 ], [ 110.553885790000038, -7.683114248999962, 0.0 ], [ 110.553882611000063, -7.683039531999955, 0.0 ], [ 110.553879494000071, -7.682906346, 0.0 ], [ 110.553908899000078, -7.682812170999961, 0.0 ], [ 110.55392528200008, -7.68271473599998, 0.0 ], [ 110.553928599000074, -7.682656267999962, 0.0 ], [ 110.554026420000071, -7.682529681999939, 0.0 ], [ 110.554114356000071, -7.682513531999972, 0.0 ], [ 110.554303254000047, -7.68248124299992, 0.0 ], [ 110.554355466000061, -7.682374100999938, 0.0 ], [ 110.554388113000073, -7.682292922999972, 0.0 ], [ 110.554392852000035, -7.682138915999934, 0.0 ], [ 110.554575353000075, -7.682062533999953, 0.0 ], [ 110.554597360000059, -7.682053323999976, 0.0 ], [ 110.554627654000058, -7.682040645999964, 0.0 ], [ 110.554631132000054, -7.682041431999947, 0.0 ], [ 110.554974456000082, -7.682119211999978, 0.0 ], [ 110.555023781000045, -7.682032153999959, 0.0 ], [ 110.555255361000036, -7.68192418199993, 0.0 ], [ 110.555321781000089, -7.68189550999995, 0.0 ], [ 110.555327057000056, -7.681893231999929, 0.0 ], [ 110.555335839000065, -7.681908537999954, 0.0 ], [ 110.555590477000067, -7.682163085999941, 0.0 ], [ 110.555791142000089, -7.682166029999954, 0.0 ], [ 110.555805872000064, -7.682181980999937, 0.0 ], [ 110.55584865600008, -7.68222831399993, 0.0 ], [ 110.555928279000057, -7.68215160699998, 0.0 ], [ 110.555938071000071, -7.682142171999932, 0.0 ], [ 110.55599754800005, -7.682084871999955, 0.0 ], [ 110.556150466000076, -7.682078211999963, 0.0 ], [ 110.556604845000038, -7.682058422999946, 0.0 ], [ 110.556694929000059, -7.682054500999926, 0.0 ], [ 110.556776663000051, -7.682050940999949, 0.0 ], [ 110.556879006000088, -7.682325278999933, 0.0 ], [ 110.556906923000042, -7.682315330999926, 0.0 ], [ 110.556947252000043, -7.682300961999936, 0.0 ], [ 110.557519540000044, -7.682097036999951, 0.0 ], [ 110.557520540000041, -7.682096680999956, 0.0 ], [ 110.557522646000052, -7.682103555999952, 0.0 ], [ 110.557534047000047, -7.68214078399996, 0.0 ], [ 110.557582059000083, -7.682297541999962, 0.0 ], [ 110.557595024000079, -7.682339871999936, 0.0 ], [ 110.557633036000084, -7.682335374999983, 0.0 ], [ 110.557764903000077, -7.682319772999962, 0.0 ], [ 110.557937364000054, -7.682297547999951, 0.0 ], [ 110.558136716000035, -7.682332088999942, 0.0 ], [ 110.558309422000036, -7.682358112999964, 0.0 ], [ 110.558455201000086, -7.682438677999925, 0.0 ], [ 110.558509839000067, -7.682499043999937, 0.0 ], [ 110.558545507000076, -7.682573005999918, 0.0 ], [ 110.558588360000044, -7.682661867999976, 0.0 ], [ 110.558632398000043, -7.682724303999968, 0.0 ], [ 110.55866697600004, -7.682799266999956, 0.0 ], [ 110.558662845000072, -7.682863697999949, 0.0 ], [ 110.558650412000077, -7.682927431999928, 0.0 ], [ 110.55864845800005, -7.682930178999923, 0.0 ], [ 110.558571921000066, -7.683037732999934, 0.0 ], [ 110.558545131000074, -7.683075379999942, 0.0 ], [ 110.558522392000043, -7.68313704899998, 0.0 ], [ 110.558534697000084, -7.683198749999979, 0.0 ], [ 110.558586194000043, -7.683233760999943, 0.0 ], [ 110.558588839000038, -7.683236992999975, 0.0 ], [ 110.55863211500008, -7.683289869999948, 0.0 ], [ 110.558663448000075, -7.683328153999982, 0.0 ], [ 110.558719791000044, -7.683396994999947, 0.0 ], [ 110.558756003000056, -7.683441239999975, 0.0 ], [ 110.558808537000075, -7.683505426999943, 0.0 ], [ 110.558872919000066, -7.683635953999954, 0.0 ], [ 110.55888464800006, -7.68365973099997, 0.0 ], [ 110.558903606000058, -7.68368357999997, 0.0 ], [ 110.55905129000007, -7.683869360999942, 0.0 ], [ 110.559564124000076, -7.683773099999935, 0.0 ], [ 110.559974812000064, -7.683696010999935, 0.0 ], [ 110.560019817000068, -7.683688092999935, 0.0 ] ] ] } }
]
}
